[{"OBJECT_NAME":"STARLINK-31812","OBJECT_ID":"2024-093U","EPOCH":"2026-03-09T10:09:33.926976","MEAN_MOTION":15.27577257,"ECCENTRICITY":0.00014439,"INCLINATION":43,"RA_OF_ASC_NODE":210.4852,"ARG_OF_PERICENTER":270.2523,"MEAN_ANOMALY":89.8163,"EPHEMERIS_TYPE":0,"CLASSIFICATION_TYPE":"U","NORAD_CAT_ID":59800,"ELEMENT_SET_NO":999,"REV_AT_EPOCH":10272,"BSTAR":-6.6400018e-5,"MEAN_MOTION_DOT":-2.089e-5,"MEAN_MOTION_DDOT":0},{"OBJECT_NAME":"TITAN 3C TRANSTAGE DEB","OBJECT_ID":"1965-108AH","EPOCH":"2026-03-08T17:48:02.724480","MEAN_MOTION":5.86598029,"ECCENTRICITY":0.47540309,"INCLINATION":27.254,"RA_OF_ASC_NODE":316.1669,"ARG_OF_PERICENTER":20.2025,"MEAN_ANOMALY":353.6228,"EPHEMERIS_TYPE":0,"CLASSIFICATION_TYPE":"U","NORAD_CAT_ID":26049,"ELEMENT_SET_NO":999,"REV_AT_EPOCH":10429,"BSTAR":0.016703702,"MEAN_MOTION_DOT":0.00021794,"MEAN_MOTION_DDOT":0}]
